SL-14 R/B               
1 21423U 91042B   25356.84394350  .00000411  00000+0  49057-4 0  9999
2 21423  82.4935 292.2484 0018234 130.0404 230.2413 14.81747517841694
ERS-1                   
1 21574U 91050A   25356.32994522  .00000297  00000+0  10958-3 0  9994
2 21574  98.7900   7.6244 0032980  72.4313 288.0473 14.39371796804609
ARIANE 40 R/B           
1 21610U 91050F   25356.91148309  .00000315  00000+0  10694-3 0  9992
2 21610  98.2151  46.9744 0002189 324.0179  36.0864 14.42821182807924
INTERCOSMOS 25          
1 21819U 91086A   25356.46010906  .00002173  00000+0  43268-3 0  9990
2 21819  82.6074 356.6954 1486363 283.4379  60.5730 12.11765115487331
SL-8 R/B                
1 21876U 92008B   25356.86005608  .00000116  00000+0  10390-3 0  9990
2 21876  82.9270 324.9184 0034545 351.7250  70.7101 13.75961193698856
SL-8 R/B                
1 21938U 92020B   25356.96266488  .00000139  00000+0  12844-3 0  9990
2 21938  82.9295 210.7262 0029553 149.8613 324.5555 13.75529688690587
USA 81                  
1 21949U 92023A   25356.88424103  .00000179  00000+0  59037-4 0  9996
2 21949  85.0079 175.7253 0001098  82.5632 277.5686 14.32330412 83791
COSMOS 2219             
1 22219U 92076A   25356.91108678  .00000279  00000+0  17099-3 0  9997
2 22219  71.0575 178.5696 0019289 312.9765  46.9740 14.14066164707521
SL-16 R/B               
1 22220U 92076B   25356.47075907  .00000198  00000+0  12276-3 0  9990
2 22220  71.0008 351.0332 0014296 221.0022 254.6556 14.16844519710895
COSMOS 2221             
1 22236U 92080A   25356.45096151  .00001868  00000+0  16477-3 0  9996
2 22236  82.5038 353.0296 0016282  91.9247 268.3840 14.95796314769240
SL-16 R/B               
1 22285U 92093B   25356.92070222  .00000022  00000+0  35820-4 0  9992
2 22285  71.0206 165.4239 0002456  38.0684 322.0612 14.15435258702297
COSMOS 2228             
1 22286U 92094A   25356.85198973  .00001984  00000+0  17070-3 0  9994
2 22286  82.5185 310.8584 0017288 195.3156 164.7546 14.96772874764562
